OBJECT_NAME,OBJECT_ID,EPOCH,MEAN_MOTION,ECCENTRICITY,INCLINATION,RA_OF_ASC_NODE,ARG_OF_PERICENTER,MEAN_ANOMALY,EPHEMERIS_TYPE,CLASSIFICATION_TYPE,NORAD_CAT_ID,ELEMENT_SET_NO,REV_AT_EPOCH,BSTAR,MEAN_MOTION_DOT,MEAN_MOTION_DDOT
SCD 1,1993-009B,2026-07-12T02:12:35.606592,14.46127945,.00420076,24.9702,53.8010,41.8001,96.2943,0,U,22490,999,76472,.31098118E-4,.299E-5,0
TECHSAT 1B (GO-32),1998-043D,2026-07-11T22:19:44.059584,14.24432954,.0002096,99.0082,186.3145,119.6916,240.4471,0,U,25397,999,45485,.28845E-4,.2E-6,0
SCD 2,1998-060A,2026-07-12T06:59:47.626080,14.45534297,.00169066,24.9952,277.3447,29.1714,10.3478,0,U,25504,999,46396,.2998274E-4,.289E-5,0
DLR-TUBSAT,1999-029B,2026-07-12T05:33:34.852032,14.52432898,.0012964,98.6709,189.5612,274.5741,85.3973,0,U,25757,999,43688,.17066969E-4,.21E-6,0
TERRA,1999-068A,2026-07-12T06:53:09.062880,14.61122270,.00032951,97.9443,241.8363,128.3138,290.4742,0,U,25994,999,41327,.4902336E-4,.197E-5,0
MAROC-TUBSAT,2001-056D,2026-07-11T23:49:02.510688,13.70263467,.00206268,99.8095,10.3209,79.9870,73.3018,0,U,27004,999,22958,.30798714E-4,-.19E-6,0
AQUA,2002-022A,2026-07-12T07:32:03.304032,14.62194579,.00008471,98.4293,163.1016,107.7540,358.1104,0,U,27424,999,28694,.8825197E-4,.395E-5,0
SHIYAN-1 (SY-1),2004-012A,2026-07-12T03:58:32.248128,15.34402205,.00040913,97.8694,272.8674,289.6193,70.4607,0,U,28220,999,21492,.26104428E-3,.8611E-4,0
AURA,2004-026A,2026-07-12T07:41:04.334784,14.61365349,.00012828,98.3429,149.9839,92.4930,267.6417,0,U,28376,999,16988,.88709751E-4,.39E-5,0
IRS-P5 (CARTOSAT-1),2005-017A,2026-07-12T01:00:40.036320,14.91112446,.00015643,97.5306,214.9790,55.5912,304.5454,0,U,28649,999,14752,.66621669E-4,.608E-5,0
SINAH 1,2005-043D,2026-07-12T08:08:57.917472,14.64174434,.00141841,98.2889,327.8138,192.5383,167.5468,0,U,28893,999,10420,.37574197E-4,.148E-5,0
RESURS-DK 1,2006-021A,2026-07-11T14:59:58.583040,15.13311404,.0006915,69.9312,276.2899,275.2250,84.8127,0,U,29228,999,10627,.6271749E-4,.1011E-4,0
ARIRANG-2 (KOMPSAT-2),2006-031A,2026-07-12T05:41:26.339424,14.64674383,.00145118,97.8315,16.4729,0.3478,107.8252,0,U,29268,999,6514,.29163183E-4,.11E-5,0
LAPAN-TUBSAT,2007-001A,2026-07-12T07:17:36.212640,14.85977762,.00136243,98.1353,193.0950,102.0760,258.1982,0,U,29709,999,5488,.10918055E-3,.897E-5,0
HAIYANG-1B,2007-010A,2026-07-11T19:50:17.174688,14.31032783,.00145476,98.3512,173.7181,125.1075,235.1475,0,U,31113,999,416,.31073115E-4,.4E-6,0
COSMO-SKYMED 1,2007-023A,2026-07-12T07:57:30.165696,14.97210910,.00011881,97.8843,25.4001,102.0116,258.1239,0,U,31598,999,3355,.11674059E-3,.129E-4,0
TERRASAR-X,2007-026A,2026-07-07T11:29:59.023968,15.19153986,.0001878,97.4461,195.8972,86.9540,273.1909,0,U,31698,999,5630,.14624E-4,.24E-5,0
WORLDVIEW-1 (WV-1),2007-041A,2026-07-12T05:39:36.976032,15.24538257,.00012594,97.3897,312.6269,222.0272,138.0869,0,U,32060,999,4669,.14272064E-3,.3441E-4,0
YAOGAN-3,2007-055A,2026-07-12T07:07:11.607168,14.90874278,.000155,97.8150,222.9261,82.0553,278.0841,0,U,32289,999,961,.15867312E-3,.1508E-4,0
COSMO-SKYMED 2,2007-059A,2026-07-12T06:35:55.876992,14.82149107,.00014343,97.8891,16.5097,93.3320,266.8058,0,U,32376,999,572,.31026493E-4,.195E-5,0
RADARSAT-2,2007-061A,2026-07-12T07:08:06.510912,14.29983047,.00013351,98.5784,199.8710,84.1400,275.9935,0,U,32382,999,96954,.68106794E-4,.132E-5,0
CARTOSAT-2A,2008-021A,2026-07-12T08:16:41.037888,14.79272471,.00127185,97.7627,241.1932,35.7238,324.4822,0,U,32783,999,98252,-.8904618E-5,-.116E-5,0
HUANJING 1A (HJ-1A),2008-041A,2026-07-12T07:35:27.917376,14.84046196,.00205163,97.6691,178.1847,58.3694,301.9519,0,U,33320,999,96213,.15721266E-3,.1263E-4,0
HUANJING 1B (HJ-1B),2008-041B,2026-07-12T07:07:32.356992,14.83361342,.00379076,97.6530,181.2616,100.2590,260.2902,0,U,33321,999,96213,.44997254E-4,.321E-5,0
GEOEYE 1,2008-042A,2026-07-12T07:00:27.331200,14.64647947,.00041539,98.1328,266.9219,356.5908,3.5265,0,U,33331,999,95382,.45465361E-4,.194E-5,0
THEOS,2008-049A,2026-07-12T06:17:56.944032,14.20136800,.00011374,98.5566,249.7304,88.0013,272.1295,0,U,33396,999,92152,.30532845E-4,.23E-6,0
COSMO-SKYMED 3,2008-054A,2026-07-12T07:23:09.305376,15.07099844,.00155367,97.8262,52.2946,175.4607,184.6764,0,U,33412,999,96072,.78031694E-4,.1108E-4,0
YAOGAN-4,2008-061A,2026-07-12T06:18:31.851360,14.83248013,.0014096,97.9305,126.5888,355.3156,4.7923,0,U,33446,999,94938,.70027908E-4,.519E-5,0
GOSAT (IBUKI),2009-002A,2026-07-11T19:41:14.729568,14.67536213,.00012403,98.0913,303.5970,92.1118,268.0228,0,U,33492,999,93507,-.974199E-6,-.54E-6,0
DEIMOS-1,2009-041A,2026-07-12T06:46:17.359968,14.75263432,.00027523,97.7427,349.4259,96.6213,263.5310,0,U,35681,999,91058,.89697101E-4,.559E-5,0
