SCD 1                   
1 22490U 93009B   26193.09207878  .00000299  00000+0  31098-4 0  9994
2 22490  24.9702  53.8010 0042007  41.8001  96.2943 14.46127945764729
TECHSAT 1B (GO-32)      
1 25397U 98043D   26192.93037106  .00000020  00000+0  28845-4 0  9991
2 25397  99.0082 186.3145 0002096 119.6916 240.4471 14.24432954454850
SCD 2                   
1 25504U 98060A   26193.29152345  .00000289  00000+0  29983-4 0  9994
2 25504  24.9952 277.3447 0016906  29.1714  10.3478 14.45534297463964
DLR-TUBSAT              
1 25757U 99029B   26193.23165338  .00000021  00000+0  17067-4 0  9994
2 25757  98.6709 189.5612 0012964 274.5741  85.3973 14.52432898436881
TERRA                   
1 25994U 99068A   26193.28691045  .00000197  00000+0  49023-4 0  9995
2 25994  97.9443 241.8363 0003295 128.3138 290.4742 14.61122270413270
MAROC-TUBSAT            
1 27004U 01056D   26192.99239017 -.00000019  00000+0  30799-4 0  9997
2 27004  99.8095  10.3209 0020626  79.9870  73.3018 13.70263467229583
AQUA                    
1 27424U 02022A   26193.31392713  .00000395  00000+0  88252-4 0  9990
2 27424  98.4293 163.1016 0000847 107.7540 358.1104 14.62194579286946
SHIYAN-1 (SY-1)         
1 28220U 04012A   26193.16565102  .00008611  00000+0  26104-3 0  9999
2 28220  97.8694 272.8674 0004091 289.6193  70.4607 15.34402205214925
AURA                    
1 28376U 04026A   26193.32018906  .00000390  00000+0  88710-4 0  9997
2 28376  98.3429 149.9839 0001282  92.4930 267.6417 14.61365349169883
IRS-P5 (CARTOSAT-1)     
1 28649U 05017A   26193.04213005  .00000608  00000+0  66622-4 0  9997
2 28649  97.5306 214.9790 0001564  55.5912 304.5454 14.91112446147523
SINAH 1                 
1 28893U 05043D   26193.33955923  .00000148  00000+0  37574-4 0  9994
2 28893  98.2889 327.8138 0014184 192.5383 167.5468 14.64174434104209
RESURS-DK 1             
1 29228U 06021A   26192.62498360  .00001011  00000+0  62717-4 0  9999
2 29228  69.9312 276.2899 0006915 275.2250  84.8127 15.13311404106271
ARIRANG-2 (KOMPSAT-2)   
1 29268U 06031A   26193.23711041  .00000110  00000+0  29163-4 0  9993
2 29268  97.8315  16.4729 0014511   0.3478 107.8252 14.64674383 65142
LAPAN-TUBSAT            
1 29709U 07001A   26193.30389135  .00000897  00000+0  10918-3 0  9993
2 29709  98.1353 193.0950 0013624 102.0760 258.1982 14.85977762 54883
HAIYANG-1B              
1 31113U 07010A   26192.82658767  .00000040  00000+0  31073-4 0  9997
2 31113  98.3512 173.7181 0014547 125.1075 235.1475 14.31032783  4169
COSMO-SKYMED 1          
1 31598U 07023A   26193.33159914  .00001290  00000+0  11674-3 0  9997
2 31598  97.8843  25.4001 0001188 102.0116 258.1239 14.97210910 33558
TERRASAR-X              
1 31698U 07026A   26188.47915537  .00000240  00000+0  14624-4 0  9994
2 31698  97.4461 195.8972 0001878  86.9540 273.1909 15.19153986 56300
WORLDVIEW-1 (WV-1)      
1 32060U 07041A   26193.23584463  .00003441  00000+0  14272-3 0  9999
2 32060  97.3897 312.6269 0001259 222.0272 138.0869 15.24538257 46691
YAOGAN-3                
1 32289U 07055A   26193.29666212  .00001508  00000+0  15867-3 0  9999
2 32289  97.8150 222.9261 0001550  82.0553 278.0841 14.90874278  9610
COSMO-SKYMED 2          
1 32376U 07059A   26193.27495228  .00000195  00000+0  31026-4 0  9992
2 32376  97.8891  16.5097 0001434  93.3320 266.8058 14.82149107  5721
RADARSAT-2              
1 32382U 07061A   26193.29729758  .00000132  00000+0  68107-4 0  9993
2 32382  98.5784 199.8710 0001335  84.1400 275.9935 14.29983047969545
CARTOSAT-2A             
1 32783U 08021A   26193.34491942 -.00000116  00000+0 -89046-5 0  9992
2 32783  97.7627 241.1932 0012718  35.7238 324.4822 14.79272471982527
HUANJING 1A (HJ-1A)     
1 33320U 08041A   26193.31629534  .00001263  00000+0  15721-3 0  9998
2 33320  97.6691 178.1847 0020516  58.3694 301.9519 14.84046196962138
HUANJING 1B (HJ-1B)     
1 33321U 08041B   26193.29690228  .00000321  00000+0  44997-4 0  9996
2 33321  97.6530 181.2616 0037907 100.2590 260.2902 14.83361342962139
GEOEYE 1                
1 33331U 08042A   26193.29198300  .00000194  00000+0  45465-4 0  9991
2 33331  98.1328 266.9219 0004153 356.5908   3.5265 14.64647947953820
THEOS                   
1 33396U 08049A   26193.26246463  .00000023  00000+0  30533-4 0  9991
2 33396  98.5566 249.7304 0001137  88.0013 272.1295 14.20136800921528
COSMO-SKYMED 3          
1 33412U 08054A   26193.30774659  .00001108  00000+0  78032-4 0  9995
2 33412  97.8262  52.2946 0015536 175.4607 184.6764 15.07099844960724
YAOGAN-4                
1 33446U 08061A   26193.26286865  .00000519  00000+0  70028-4 0  9994
2 33446  97.9305 126.5888 0014096 355.3156   4.7923 14.83248013949383
GOSAT (IBUKI)           
1 33492U 09002A   26192.82030937 -.00000054  00000+0 -97420-6 0  9992
2 33492  98.0913 303.5970 0001240  92.1118 268.0228 14.67536213935079
DEIMOS-1                
1 35681U 09041A   26193.28214537  .00000559  00000+0  89697-4 0  9991
2 35681  97.7427 349.4259 0002752  96.6213 263.5310 14.75263432910580
